start=new Date('2021-11-28T00:00:00.000Z').valueOf();
sats=[{"EPOCH":"2021-11-27T20:31:49.247904","ARG_OF_PERICENTER":"27.9148","PERIOD":"93.597","RCS_SIZE":"LARGE","MEAN_ELEMENT_THEORY":"SGP4","TLE_LINE1":"1 46769U 20074AG  21331.85543111  .00083482  00000-0  21510-2 0  9999","REV_AT_EPOCH":"6094","MEAN_MOTION_DOT":"0.00083482","OBJECT_ID":"2020-074AG","INCLINATION":"53.0555","PERIAPSIS":"448.311","CENTER_NAME":"EARTH","APOAPSIS":"452.762","REF_FRAME":"TEME","TLE_LINE2":"2 46769  53.0555 149.9910 0003259  27.9148 332.2030 15.38503216 60946","EPHEMERIS_TYPE":"0","ELEMENT_SET_NO":"999","ECCENTRICITY":"0.00032590","MEAN_MOTION_DDOT":"0.0000000000000","GP_ID":"190621852","LAUNCH_DATE":"2020-10-24","OBJECT_NAME":"STARLINK-1919","TIME_SYSTEM":"UTC","SITE":"AFETR","BSTAR":"0.00215100000000","OBJECT_TYPE":"PAYLOAD","FILE":"3225675","NORAD_CAT_ID":"46769","RA_OF_ASC_NODE":"149.9910","CLASSIFICATION_TYPE":"U","SEMIMAJOR_AXIS":"6828.672","MEAN_MOTION":"15.38503216","MEAN_ANOMALY":"332.2030","DECAY_DATE":null,"COUNTRY_CODE":"US"},{"TIME_SYSTEM":"UTC","OBJECT_NAME":"STARLINK-1932","SITE":"AFETR","OBJECT_TYPE":"PAYLOAD","BSTAR":"0.00007116400000","ELEMENT_SET_NO":"999","ECCENTRICITY":"0.00023790","LAUNCH_DATE":"2020-10-24","GP_ID":"190593294","MEAN_MOTION_DDOT":"0.0000000000000","CLASSIFICATION_TYPE":"U","SEMIMAJOR_AXIS":"6925.391","MEAN_ANOMALY":"284.1633","MEAN_MOTION":"15.06386268","DECAY_DATE":null,"COUNTRY_CODE":"US","FILE":"3225405","RA_OF_ASC_NODE":"154.0745","NORAD_CAT_ID":"46770","RCS_SIZE":"LARGE","TLE_LINE1":"1 46770U 20074AH  21331.49440285  .00000778  00000-0  71164-4 0  9998","MEAN_ELEMENT_THEORY":"SGP4","REV_AT_EPOCH":"6085","MEAN_MOTION_DOT":"0.00000778","PERIOD":"95.593","ARG_OF_PERICENTER":"75.9621","EPOCH":"2021-11-27T11:51:56.406240","CENTER_NAME":"EARTH","PERIAPSIS":"545.608","APOAPSIS":"548.903","REF_FRAME":"TEME","EPHEMERIS_TYPE":"0","TLE_LINE2":"2 46770  53.0537 154.0745 0002379  75.9621 284.1633 15.06386268 60857","OBJECT_ID":"2020-074AH","INCLINATION":"53.0537"},{"SITE":"AFETR","OBJECT_NAME":"STARLINK-1936","TIME_SYSTEM":"UTC","OBJECT_TYPE":"PAYLOAD","BSTAR":"0.00002892300000","ECCENTRICITY":"0.00018360","ELEMENT_SET_NO":"999","LAUNCH_DATE":"2020-10-24","GP_ID":"190622838","MEAN_MOTION_DDOT":"0.0000000000000","MEAN_ANOMALY":"283.6200","MEAN_MOTION":"15.06403953","SEMIMAJOR_AXIS":"6925.336","CLASSIFICATION_TYPE":"U","COUNTRY_CODE":"US","DECAY_DATE":null,"FILE":"3225675","RA_OF_ASC_NODE":"152.3553","NORAD_CAT_ID":"46772","TLE_LINE1":"1 46772U 20074AK  21331.87866481  .00000149  00000-0  28923-4 0  9999","MEAN_ELEMENT_THEORY":"SGP4","RCS_SIZE":"LARGE","MEAN_MOTION_DOT":"0.00000149","REV_AT_EPOCH":"6091","PERIOD":"95.592","ARG_OF_PERICENTER":"76.4993","EPOCH":"2021-11-27T21:05:16.639584","REF_FRAME":"TEME","APOAPSIS":"548.473","CENTER_NAME":"EARTH","PERIAPSIS":"545.930","EPHEMERIS_TYPE":"0","TLE_LINE2":"2 46772  53.0548 152.3553 0001836  76.4993 283.6200 15.06403953 60916","OBJECT_ID":"2020-074AK","INCLINATION":"53.0548"},{"SITE":"AFETR","TIME_SYSTEM":"UTC","OBJECT_NAME":"STARLINK-1939","BSTAR":"0.00030652000000","OBJECT_TYPE":"PAYLOAD","ECCENTRICITY":"0.00017600","ELEMENT_SET_NO":"999","MEAN_MOTION_DDOT":"0.0000000000000","LAUNCH_DATE":"2020-10-24","GP_ID":"190623596","MEAN_MOTION":"15.08459844","MEAN_ANOMALY":"250.4198","CLASSIFICATION_TYPE":"U","SEMIMAJOR_AXIS":"6919.043","COUNTRY_CODE":"US","DECAY_DATE":null,"FILE":"3225675","RA_OF_ASC_NODE":"151.0730","NORAD_CAT_ID":"46774","MEAN_ELEMENT_THEORY":"SGP4","TLE_LINE1":"1 46774U 20074AM  21331.82102562  .00004544  00000-0  30652-3 0  9993","RCS_SIZE":"LARGE","MEAN_MOTION_DOT":"0.00004544","REV_AT_EPOCH":"6093","EPOCH":"2021-11-27T19:42:16.613568","PERIOD":"95.462","ARG_OF_PERICENTER":"109.6982","APOAPSIS":"542.125","REF_FRAME":"TEME","PERIAPSIS":"539.690","CENTER_NAME":"EARTH","TLE_LINE2":"2 46774  53.0520 151.0730 0001760 109.6982 250.4198 15.08459844 60936","EPHEMERIS_TYPE":"0","OBJECT_ID":"2020-074AM","INCLINATION":"53.0520"},{"ELEMENT_SET_NO":"999","ECCENTRICITY":"0.00028290","GP_ID":"190622352","LAUNCH_DATE":"2020-10-24","MEAN_MOTION_DDOT":"0.0000000000000","OBJECT_NAME":"STARLINK-1945","TIME_SYSTEM":"UTC","SITE":"AFETR","OBJECT_TYPE":"PAYLOAD","BSTAR":"0.00217220000000","RA_OF_ASC_NODE":"142.6495","FILE":"3225675","NORAD_CAT_ID":"46775","SEMIMAJOR_AXIS":"6756.206","CLASSIFICATION_TYPE":"U","MEAN_ANOMALY":"331.7156","MEAN_MOTION":"15.63321928","DECAY_DATE":null,"COUNTRY_CODE":"US","PERIOD":"92.112","ARG_OF_PERICENTER":"28.4011","EPOCH":"2021-11-27T20:38:52.454976","RCS_SIZE":"LARGE","TLE_LINE1":"1 46775U 20074AN  21331.86032934  .00208130  00000-0  21722-2 0  9997","MEAN_ELEMENT_THEORY":"SGP4","REV_AT_EPOCH":"6104","MEAN_MOTION_DOT":"0.00208130","OBJECT_ID":"2020-074AN","INCLINATION":"53.0554","CENTER_NAME":"EARTH","PERIAPSIS":"376.160","REF_FRAME":"TEME","APOAPSIS":"379.983","EPHEMERIS_TYPE":"0","TLE_LINE2":"2 46775  53.0554 142.6495 0002829  28.4011 331.7156 15.63321928 61048"},{"MEAN_MOTION":"15.06396217","MEAN_ANOMALY":"265.7483","SEMIMAJOR_AXIS":"6925.360","CLASSIFICATION_TYPE":"U","COUNTRY_CODE":"US","DECAY_DATE":null,"FILE":"3225405","RA_OF_ASC_NODE":"154.0686","NORAD_CAT_ID":"46776","SITE":"AFETR","OBJECT_NAME":"STARLINK-1946","TIME_SYSTEM":"UTC","BSTAR":"0.00007962000000","OBJECT_TYPE":"PAYLOAD","ECCENTRICITY":"0.00019960","ELEMENT_SET_NO":"999","MEAN_MOTION_DDOT":"0.0000000000000","GP_ID":"190592795","LAUNCH_DATE":"2020-10-24","REF_FRAME":"TEME","APOAPSIS":"548.607","PERIAPSIS":"545.843","CENTER_NAME":"EARTH","TLE_LINE2":"2 46776  53.0536 154.0686 0001996  94.3734 265.7483 15.06396217 60853","EPHEMERIS_TYPE":"0","OBJECT_ID":"2020-074AP","INCLINATION":"53.0536","MEAN_ELEMENT_THEORY":"SGP4","TLE_LINE1":"1 46776U 20074AP  21331.49533889  .00000904  00000-0  79620-4 0  9993","RCS_SIZE":"LARGE","MEAN_MOTION_DOT":"0.00000904","REV_AT_EPOCH":"6085","EPOCH":"2021-11-27T11:53:17.280096","PERIOD":"95.592","ARG_OF_PERICENTER":"94.3734"},{"EPOCH":"2021-11-27T17:01:49.314720","PERIOD":"95.593","ARG_OF_PERICENTER":"90.0399","MEAN_ELEMENT_THEORY":"SGP4","TLE_LINE1":"1 46779U 20074AS  21331.70959855  .00000825  00000-0  74318-4 0  9996","RCS_SIZE":"LARGE","MEAN_MOTION_DOT":"0.00000825","REV_AT_EPOCH":"6123","OBJECT_ID":"2020-074AS","INCLINATION":"53.0540","REF_FRAME":"TEME","APOAPSIS":"548.502","PERIAPSIS":"545.974","CENTER_NAME":"EARTH","TLE_LINE2":"2 46779  53.0540 128.1031 0001825  90.0399 270.0799 15.06392026 61234","EPHEMERIS_TYPE":"0","ECCENTRICITY":"0.00018250","ELEMENT_SET_NO":"999","MEAN_MOTION_DDOT":"0.0000000000000","GP_ID":"190623338","LAUNCH_DATE":"2020-10-24","SITE":"AFETR","TIME_SYSTEM":"UTC","OBJECT_NAME":"STARLINK-1798","BSTAR":"0.00007431800000","OBJECT_TYPE":"PAYLOAD","FILE":"3225675","RA_OF_ASC_NODE":"128.1031","NORAD_CAT_ID":"46779","MEAN_MOTION":"15.06392026","MEAN_ANOMALY":"270.0799","CLASSIFICATION_TYPE":"U","SEMIMAJOR_AXIS":"6925.373","COUNTRY_CODE":"US","DECAY_DATE":null},{"REF_FRAME":"TEME","APOAPSIS":"548.453","CENTER_NAME":"EARTH","PERIAPSIS":"545.968","EPHEMERIS_TYPE":"0","TLE_LINE2":"2 46780  53.0548 127.5614 0001794  86.4492 273.6702 15.06401028 61250","OBJECT_ID":"2020-074AT","INCLINATION":"53.0548","TLE_LINE1":"1 46780U 20074AT  21331.83121919  .00001238  00000-0  10199-3 0  9999","MEAN_ELEMENT_THEORY":"SGP4","RCS_SIZE":"LARGE","MEAN_MOTION_DOT":"0.00001238","REV_AT_EPOCH":"6125","PERIOD":"95.592","ARG_OF_PERICENTER":"86.4492","EPOCH":"2021-11-27T19:56:57.338016","MEAN_ANOMALY":"273.6702","MEAN_MOTION":"15.06401028","SEMIMAJOR_AXIS":"6925.345","CLASSIFICATION_TYPE":"U","COUNTRY_CODE":"US","DECAY_DATE":null,"FILE":"3225675","RA_OF_ASC_NODE":"127.5614","NORAD_CAT_ID":"46780","SITE":"AFETR","OBJECT_NAME":"STARLINK-1832","TIME_SYSTEM":"UTC","OBJECT_TYPE":"PAYLOAD","BSTAR":"0.00010199000000","ECCENTRICITY":"0.00017940","ELEMENT_SET_NO":"999","GP_ID":"190623097","LAUNCH_DATE":"2020-10-24","MEAN_MOTION_DDOT":"0.0000000000000"},{"EPOCH":"2021-11-27T18:46:38.639424","PERIOD":"95.592","ARG_OF_PERICENTER":"90.4746","REV_AT_EPOCH":"6111","MEAN_MOTION_DOT":"0.00000698","RCS_SIZE":"LARGE","MEAN_ELEMENT_THEORY":"SGP4","TLE_LINE1":"1 46781U 20074AU  21331.78239166  .00000698  00000-0  65762-4 0  9994","INCLINATION":"53.0541","OBJECT_ID":"2020-074AU","TLE_LINE2":"2 46781  53.0541 137.7858 0001868  90.4746 269.6457 15.06395157 61118","EPHEMERIS_TYPE":"0","PERIAPSIS":"545.935","CENTER_NAME":"EARTH","REF_FRAME":"TEME","APOAPSIS":"548.522","MEAN_MOTION_DDOT":"0.0000000000000","LAUNCH_DATE":"2020-10-24","GP_ID":"190621853","ELEMENT_SET_NO":"999","ECCENTRICITY":"0.00018680","BSTAR":"0.00006576200000","OBJECT_TYPE":"PAYLOAD","TIME_SYSTEM":"UTC","OBJECT_NAME":"STARLINK-1834","SITE":"AFETR","FILE":"3225675","RA_OF_ASC_NODE":"137.7858","NORAD_CAT_ID":"46781","DECAY_DATE":null,"COUNTRY_CODE":"US","SEMIMAJOR_AXIS":"6925.363","CLASSIFICATION_TYPE":"U","MEAN_MOTION":"15.06395157","MEAN_ANOMALY":"269.6457"},{"ARG_OF_PERICENTER":"92.8254","PERIOD":"95.592","EPOCH":"2021-11-27T19:41:03.183936","RCS_SIZE":"LARGE","TLE_LINE1":"1 46782U 20074AV  21331.82017574  .00001156  00000-0  96451-4 0  9996","MEAN_ELEMENT_THEORY":"SGP4","REV_AT_EPOCH":"6125","MEAN_MOTION_DOT":"0.00001156","OBJECT_ID":"2020-074AV","INCLINATION":"53.0521","CENTER_NAME":"EARTH","PERIAPSIS":"546.093","APOAPSIS":"548.308","REF_FRAME":"TEME","EPHEMERIS_TYPE":"0","TLE_LINE2":"2 46782  53.0521 127.6131 0001599  92.8254 267.2918 15.06404215 61257","ELEMENT_SET_NO":"999","ECCENTRICITY":"0.00015990","GP_ID":"190622103","LAUNCH_DATE":"2020-10-24","MEAN_MOTION_DDOT":"0.0000000000000","TIME_SYSTEM":"UTC","OBJECT_NAME":"STARLINK-1835","SITE":"AFETR","OBJECT_TYPE":"PAYLOAD","BSTAR":"0.00009645100000","NORAD_CAT_ID":"46782","FILE":"3225675","RA_OF_ASC_NODE":"127.6131","CLASSIFICATION_TYPE":"U","SEMIMAJOR_AXIS":"6925.336","MEAN_ANOMALY":"267.2918","MEAN_MOTION":"15.06404215","DECAY_DATE":null,"COUNTRY_CODE":"US"}];
